OBJECT_NAME,OBJECT_ID,EPOCH,MEAN_MOTION,ECCENTRICITY,INCLINATION,RA_OF_ASC_NODE,ARG_OF_PERICENTER,MEAN_ANOMALY,EPHEMERIS_TYPE,CLASSIFICATION_TYPE,NORAD_CAT_ID,ELEMENT_SET_NO,REV_AT_EPOCH,BSTAR,MEAN_MOTION_DOT,MEAN_MOTION_DDOT
GUOWANG TEST OBJECT A,2026-120A,2026-06-06T02:21:55.132128,15.38777591,.0009486,54.9973,77.6770,290.5105,69.4905,0,U,69320,999,98,.32226E-3,.12167E-3,0
GUOWANG TEST OBJECT B,2026-120B,2026-06-04T06:41:24.658368,15.39121370,.00091004,55.0006,85.8667,296.4175,63.5919,0,U,69321,999,70,.6938966E-3,.27005E-3,0
GUOWANG TEST OBJECT C,2026-120C,2026-06-06T02:18:04.210848,15.39487703,.0009488,54.9978,77.6685,304.4356,55.5776,0,U,69322,999,98,.58529E-3,.22985E-3,0
GUOWANG TEST OBJECT D,2026-120D,2026-06-04T15:59:40.712352,15.39704502,.00080029,55.0029,84.1123,301.7889,58.2360,0,U,69323,999,76,.80800046E-3,.32137E-3,0
QIANFAN-163,2026-121A,2026-06-06T02:49:11.173152,13.60350818,.0019044,89.0163,301.6355,219.7126,140.2637,0,U,69325,999,65,.20706E-4,.28E-6,0
QIANFAN-164,2026-121B,2026-06-06T02:48:25.234272,13.60504053,.0018396,89.0160,301.6350,221.2888,138.6878,0,U,69326,999,65,.15729E-3,.13E-5,0
SZ-22 MODULE,2025-272C,2026-06-04T22:45:01.755936,15.59719201,.0008356,41.4810,36.4880,350.2706,9.7969,0,U,69328,999,141,.27599E-3,.2247E-3,0
